[{"OBJECT_NAME":"TELKOM 3S","OBJECT_ID":"2017-007A","EPOCH":"2026-04-05T13:54:30.618720","MEAN_MOTION":1.00272529,"ECCENTRICITY":0.00024517,"INCLINATION":0.0214,"RA_OF_ASC_NODE":120.3941,"ARG_OF_PERICENTER":263.7259,"MEAN_ANOMALY":136.391,"EPHEMERIS_TYPE":0,"CLASSIFICATION_TYPE":"U","NORAD_CAT_ID":41944,"ELEMENT_SET_NO":999,"REV_AT_EPOCH":3341,"BSTAR":0,"MEAN_MOTION_DOT":-3.61e-6,"MEAN_MOTION_DDOT":0},{"OBJECT_NAME":"INTELSAT 32E (IS-32E)","OBJECT_ID":"2017-007B","EPOCH":"2026-04-05T05:41:41.266752","MEAN_MOTION":1.00269619,"ECCENTRICITY":3.43e-5,"INCLINATION":0.0193,"RA_OF_ASC_NODE":215.5644,"ARG_OF_PERICENTER":65.8378,"MEAN_ANOMALY":314.381,"EPHEMERIS_TYPE":0,"CLASSIFICATION_TYPE":"U","NORAD_CAT_ID":41945,"ELEMENT_SET_NO":999,"REV_AT_EPOCH":3349,"BSTAR":0,"MEAN_MOTION_DOT":0,"MEAN_MOTION_DDOT":0},{"OBJECT_NAME":"ECHOSTAR 23","OBJECT_ID":"2017-014A","EPOCH":"2026-04-05T12:13:20.485632","MEAN_MOTION":1.00270467,"ECCENTRICITY":0.00019502,"INCLINATION":0.0166,"RA_OF_ASC_NODE":202.7645,"ARG_OF_PERICENTER":171.4988,"MEAN_ANOMALY":252.9867,"EPHEMERIS_TYPE":0,"CLASSIFICATION_TYPE":"U","NORAD_CAT_ID":42070,"ELEMENT_SET_NO":999,"REV_AT_EPOCH":3319,"BSTAR":0,"MEAN_MOTION_DOT":0,"MEAN_MOTION_DDOT":0},{"OBJECT_NAME":"WGS F9 (USA 275)","OBJECT_ID":"2017-016A","EPOCH":"2026-04-05T08:20:38.484960","MEAN_MOTION":1.00272656,"ECCENTRICITY":2.856e-5,"INCLINATION":0.0088,"RA_OF_ASC_NODE":213.5208,"ARG_OF_PERICENTER":279.4091,"MEAN_ANOMALY":173.8744,"EPHEMERIS_TYPE":0,"CLASSIFICATION_TYPE":"U","NORAD_CAT_ID":42075,"ELEMENT_SET_NO":999,"REV_AT_EPOCH":3316,"BSTAR":0,"MEAN_MOTION_DOT":-9.5e-7,"MEAN_MOTION_DDOT":0},{"OBJECT_NAME":"SES-10","OBJECT_ID":"2017-017A","EPOCH":"2026-04-05T08:31:38.816832","MEAN_MOTION":1.00271914,"ECCENTRICITY":0.00028919,"INCLINATION":0.0157,"RA_OF_ASC_NODE":93.1761,"ARG_OF_PERICENTER":299.2651,"MEAN_ANOMALY":222.2299,"EPHEMERIS_TYPE":0,"CLASSIFICATION_TYPE":"U","NORAD_CAT_ID":42432,"ELEMENT_SET_NO":999,"REV_AT_EPOCH":3302,"BSTAR":0,"MEAN_MOTION_DOT":-2.71e-6,"MEAN_MOTION_DDOT":0},{"OBJECT_NAME":"CHINASAT 16 (SJ-13)","OBJECT_ID":"2017-018A","EPOCH":"2026-04-05T14:58:53.220576","MEAN_MOTION":1.00269503,"ECCENTRICITY":0.00040472,"INCLINATION":0.0873,"RA_OF_ASC_NODE":84.7512,"ARG_OF_PERICENTER":170.3818,"MEAN_ANOMALY":273.9847,"EPHEMERIS_TYPE":0,"CLASSIFICATION_TYPE":"U","NORAD_CAT_ID":42662,"ELEMENT_SET_NO":999,"REV_AT_EPOCH":3302,"BSTAR":0,"MEAN_MOTION_DOT":-3.5e-6,"MEAN_MOTION_DDOT":0},{"OBJECT_NAME":"KOREASAT 7","OBJECT_ID":"2017-023A","EPOCH":"2026-04-05T13:52:12.629280","MEAN_MOTION":1.00271238,"ECCENTRICITY":0.00010497,"INCLINATION":0.0032,"RA_OF_ASC_NODE":9.5065,"ARG_OF_PERICENTER":2.7154,"MEAN_ANOMALY":145.6081,"EPHEMERIS_TYPE":0,"CLASSIFICATION_TYPE":"U","NORAD_CAT_ID":42691,"ELEMENT_SET_NO":999,"REV_AT_EPOCH":3264,"BSTAR":0,"MEAN_MOTION_DOT":-3.6e-6,"MEAN_MOTION_DDOT":0},{"OBJECT_NAME":"SGDC","OBJECT_ID":"2017-023B","EPOCH":"2026-04-04T16:07:30.395712","MEAN_MOTION":1.00272569,"ECCENTRICITY":0.00029661,"INCLINATION":0.0461,"RA_OF_ASC_NODE":72.2393,"ARG_OF_PERICENTER":319.9449,"MEAN_ANOMALY":327.8267,"EPHEMERIS_TYPE":0,"CLASSIFICATION_TYPE":"U","NORAD_CAT_ID":42692,"ELEMENT_SET_NO":999,"REV_AT_EPOCH":3267,"BSTAR":0,"MEAN_MOTION_DOT":-2.49e-6,"MEAN_MOTION_DDOT":0},{"OBJECT_NAME":"GSAT-9","OBJECT_ID":"2017-024A","EPOCH":"2026-04-05T13:33:46.368000","MEAN_MOTION":1.00274829,"ECCENTRICITY":0.00029197,"INCLINATION":0.0399,"RA_OF_ASC_NODE":4.6394,"ARG_OF_PERICENTER":4.7331,"MEAN_ANOMALY":125.2186,"EPHEMERIS_TYPE":0,"CLASSIFICATION_TYPE":"U","NORAD_CAT_ID":42695,"ELEMENT_SET_NO":999,"REV_AT_EPOCH":3257,"BSTAR":0,"MEAN_MOTION_DOT":-2.85e-6,"MEAN_MOTION_DDOT":0},{"OBJECT_NAME":"INMARSAT 5-F4","OBJECT_ID":"2017-025A","EPOCH":"2026-04-05T13:00:53.425728","MEAN_MOTION":1.00268923,"ECCENTRICITY":3.212e-5,"INCLINATION":0.0168,"RA_OF_ASC_NODE":207.3662,"ARG_OF_PERICENTER":189.7723,"MEAN_ANOMALY":48.4486,"EPHEMERIS_TYPE":0,"CLASSIFICATION_TYPE":"U","NORAD_CAT_ID":42698,"ELEMENT_SET_NO":999,"REV_AT_EPOCH":3254,"BSTAR":0,"MEAN_MOTION_DOT":0,"MEAN_MOTION_DDOT":0},{"OBJECT_NAME":"SES-15","OBJECT_ID":"2017-026A","EPOCH":"2026-04-05T11:54:38.646432","MEAN_MOTION":1.00271091,"ECCENTRICITY":7.657e-5,"INCLINATION":0.0303,"RA_OF_ASC_NODE":320.9621,"ARG_OF_PERICENTER":63.6803,"MEAN_ANOMALY":218.6472,"EPHEMERIS_TYPE":0,"CLASSIFICATION_TYPE":"U","NORAD_CAT_ID":42709,"ELEMENT_SET_NO":999,"REV_AT_EPOCH":670,"BSTAR":0,"MEAN_MOTION_DOT":6.1e-7,"MEAN_MOTION_DDOT":0},{"OBJECT_NAME":"QZS-2 (MICHIBIKI-2)","OBJECT_ID":"2017-028A","EPOCH":"2026-04-05T06:31:36.480000","MEAN_MOTION":1.00253447,"ECCENTRICITY":0.0742095,"INCLINATION":39.5436,"RA_OF_ASC_NODE":244.2157,"ARG_OF_PERICENTER":270.6147,"MEAN_ANOMALY":276.4746,"EPHEMERIS_TYPE":0,"CLASSIFICATION_TYPE":"U","NORAD_CAT_ID":42738,"ELEMENT_SET_NO":999,"REV_AT_EPOCH":689,"BSTAR":0,"MEAN_MOTION_DOT":-2.03e-6,"MEAN_MOTION_DDOT":0},{"OBJECT_NAME":"VIASAT-2","OBJECT_ID":"2017-029A","EPOCH":"2026-04-05T12:24:49.384800","MEAN_MOTION":1.00271835,"ECCENTRICITY":4.754e-5,"INCLINATION":0.0195,"RA_OF_ASC_NODE":258.5085,"ARG_OF_PERICENTER":139.1488,"MEAN_ANOMALY":272.4575,"EPHEMERIS_TYPE":0,"CLASSIFICATION_TYPE":"U","NORAD_CAT_ID":42740,"ELEMENT_SET_NO":999,"REV_AT_EPOCH":3247,"BSTAR":0,"MEAN_MOTION_DOT":-2.64e-6,"MEAN_MOTION_DDOT":0},{"OBJECT_NAME":"EUTELSAT 172B","OBJECT_ID":"2017-029B","EPOCH":"2026-04-05T13:10:38.867808","MEAN_MOTION":1.00273529,"ECCENTRICITY":1.798e-5,"INCLINATION":0.0173,"RA_OF_ASC_NODE":170.4613,"ARG_OF_PERICENTER":313.6058,"MEAN_ANOMALY":79.4496,"EPHEMERIS_TYPE":0,"CLASSIFICATION_TYPE":"U","NORAD_CAT_ID":42741,"ELEMENT_SET_NO":999,"REV_AT_EPOCH":3301,"BSTAR":0,"MEAN_MOTION_DOT":-4.0e-8,"MEAN_MOTION_DDOT":0},{"OBJECT_NAME":"GSAT-19","OBJECT_ID":"2017-031A","EPOCH":"2026-04-05T12:58:23.665152","MEAN_MOTION":1.00271444,"ECCENTRICITY":0.00055086,"INCLINATION":0.0962,"RA_OF_ASC_NODE":84.8128,"ARG_OF_PERICENTER":322.8842,"MEAN_ANOMALY":28.5705,"EPHEMERIS_TYPE":0,"CLASSIFICATION_TYPE":"U","NORAD_CAT_ID":42747,"ELEMENT_SET_NO":999,"REV_AT_EPOCH":3241,"BSTAR":0,"MEAN_MOTION_DOT":1.27e-6,"MEAN_MOTION_DDOT":0},{"OBJECT_NAME":"ECHOSTAR 21","OBJECT_ID":"2017-032A","EPOCH":"2026-04-05T08:04:38.574048","MEAN_MOTION":1.00274274,"ECCENTRICITY":0.00025112,"INCLINATION":1.7845,"RA_OF_ASC_NODE":350.9119,"ARG_OF_PERICENTER":22.057,"MEAN_ANOMALY":312.0896,"EPHEMERIS_TYPE":0,"CLASSIFICATION_TYPE":"U","NORAD_CAT_ID":42749,"ELEMENT_SET_NO":999,"REV_AT_EPOCH":3236,"BSTAR":0,"MEAN_MOTION_DOT":6.6e-7,"MEAN_MOTION_DDOT":0},{"OBJECT_NAME":"BULGARIASAT-1","OBJECT_ID":"2017-038A","EPOCH":"2026-04-05T05:28:38.784288","MEAN_MOTION":1.00274567,"ECCENTRICITY":0.0003408,"INCLINATION":0.0552,"RA_OF_ASC_NODE":79.8892,"ARG_OF_PERICENTER":311.1245,"MEAN_ANOMALY":246.574,"EPHEMERIS_TYPE":0,"CLASSIFICATION_TYPE":"U","NORAD_CAT_ID":42801,"ELEMENT_SET_NO":999,"REV_AT_EPOCH":3211,"BSTAR":0,"MEAN_MOTION_DOT":1.3e-7,"MEAN_MOTION_DDOT":0},{"OBJECT_NAME":"HELLAS-SAT 3","OBJECT_ID":"2017-040A","EPOCH":"2026-04-05T12:55:53.905440","MEAN_MOTION":1.00270557,"ECCENTRICITY":0.00052902,"INCLINATION":0.0637,"RA_OF_ASC_NODE":36.3627,"ARG_OF_PERICENTER":345.2631,"MEAN_ANOMALY":45.1806,"EPHEMERIS_TYPE":0,"CLASSIFICATION_TYPE":"U","NORAD_CAT_ID":42814,"ELEMENT_SET_NO":999,"REV_AT_EPOCH":3207,"BSTAR":0,"MEAN_MOTION_DOT":1.54e-6,"MEAN_MOTION_DDOT":0},{"OBJECT_NAME":"GSAT-17","OBJECT_ID":"2017-040B","EPOCH":"2026-04-05T15:13:22.342368","MEAN_MOTION":1.00273266,"ECCENTRICITY":0.00039981,"INCLINATION":0.0688,"RA_OF_ASC_NODE":75.556,"ARG_OF_PERICENTER":233.618,"MEAN_ANOMALY":206.5923,"EPHEMERIS_TYPE":0,"CLASSIFICATION_TYPE":"U","NORAD_CAT_ID":42815,"ELEMENT_SET_NO":999,"REV_AT_EPOCH":3206,"BSTAR":0,"MEAN_MOTION_DOT":-2.56e-6,"MEAN_MOTION_DDOT":0},{"OBJECT_NAME":"INTELSAT 35E (IS-35E)","OBJECT_ID":"2017-041A","EPOCH":"2026-04-05T05:44:11.028192","MEAN_MOTION":1.00272847,"ECCENTRICITY":0.00021328,"INCLINATION":0.0159,"RA_OF_ASC_NODE":217.4245,"ARG_OF_PERICENTER":159.2084,"MEAN_ANOMALY":228.4468,"EPHEMERIS_TYPE":0,"CLASSIFICATION_TYPE":"U","NORAD_CAT_ID":42818,"ELEMENT_SET_NO":999,"REV_AT_EPOCH":3208,"BSTAR":0,"MEAN_MOTION_DOT":-2.37e-6,"MEAN_MOTION_DDOT":0},{"OBJECT_NAME":"COSMOS 2520","OBJECT_ID":"2017-046A","EPOCH":"2026-04-05T12:57:31.248864","MEAN_MOTION":1.00270664,"ECCENTRICITY":2.037e-5,"INCLINATION":0.0253,"RA_OF_ASC_NODE":123.5794,"ARG_OF_PERICENTER":4.3432,"MEAN_ANOMALY":305.3136,"EPHEMERIS_TYPE":0,"CLASSIFICATION_TYPE":"U","NORAD_CAT_ID":42907,"ELEMENT_SET_NO":999,"REV_AT_EPOCH":3166,"BSTAR":0,"MEAN_MOTION_DOT":1.38e-6,"MEAN_MOTION_DDOT":0},{"OBJECT_NAME":"TDRS 13","OBJECT_ID":"2017-047A","EPOCH":"2026-04-05T05:50:40.403616","MEAN_MOTION":1.00272481,"ECCENTRICITY":0.0012156,"INCLINATION":3.4359,"RA_OF_ASC_NODE":0.8798,"ARG_OF_PERICENTER":97.1842,"MEAN_ANOMALY":171.6757,"EPHEMERIS_TYPE":0,"CLASSIFICATION_TYPE":"U","NORAD_CAT_ID":42915,"ELEMENT_SET_NO":999,"REV_AT_EPOCH":3161,"BSTAR":0,"MEAN_MOTION_DOT":-9.8e-7,"MEAN_MOTION_DDOT":0},{"OBJECT_NAME":"QZS-3 (MICHIBIKI-3)","OBJECT_ID":"2017-048A","EPOCH":"2026-04-05T13:20:58.997760","MEAN_MOTION":1.00271047,"ECCENTRICITY":0.00021296,"INCLINATION":0.0647,"RA_OF_ASC_NODE":143.4164,"ARG_OF_PERICENTER":236.5566,"MEAN_ANOMALY":141.1643,"EPHEMERIS_TYPE":0,"CLASSIFICATION_TYPE":"U","NORAD_CAT_ID":42917,"ELEMENT_SET_NO":999,"REV_AT_EPOCH":3153,"BSTAR":0,"MEAN_MOTION_DOT":-3.46e-6,"MEAN_MOTION_DDOT":0},{"OBJECT_NAME":"AMAZONAS 5","OBJECT_ID":"2017-053A","EPOCH":"2026-04-05T12:27:19.145376","MEAN_MOTION":1.00269112,"ECCENTRICITY":0.0004765,"INCLINATION":0.0432,"RA_OF_ASC_NODE":310.4025,"ARG_OF_PERICENTER":40.6967,"MEAN_ANOMALY":328.5445,"EPHEMERIS_TYPE":0,"CLASSIFICATION_TYPE":"U","NORAD_CAT_ID":42934,"ELEMENT_SET_NO":999,"REV_AT_EPOCH":3131,"BSTAR":0,"MEAN_MOTION_DOT":-2.81e-6,"MEAN_MOTION_DDOT":0}]
